{"type": "FeatureCollection", "features": [ {"type": "Feature", "properties": {"norad_id": 44476, "name": "INTELSAT 39 (IS-39)", "group": "intelsat", "lat": -0.025874949297298003, "lon": -91.69586324073171, "alt_km": 35785.01876286246, "timestamp": "2025-12-02T08:59:32.387652+00:00", "meta": {"OBJECT_NAME": "INTELSAT 39 (IS-39)", "OBJECT_ID": "2019-049B", "EPOCH": "2025-12-01T21:58:38.459424", "MEAN_MOTION": 1.00276327, "ECCENTRICITY": 5.57e-05, "INCLINATION": 0.0163, "RA_OF_ASC_NODE": 308.3282, "ARG_OF_PERICENTER": 224.0067, "MEAN_ANOMALY": 290.3068, "EPHEMERIS_TYPE": 0, "CLASSIFICATION_TYPE": "U", "NORAD_CAT_ID": 44476, "ELEMENT_SET_NO": 999, "REV_AT_EPOCH": 2315, "BSTAR": 0, "MEAN_MOTION_DOT": 5.4e-07, "MEAN_MOTION_DDOT": 0}, "tle": {"line1": "1 44476U 19049B   25335.91572291  .00000054  00000+0  00000+0 0  9999", "line2": "2 44476   0.0163 308.3282 0000557 224.0067 290.3068  1.00276327 23158"}}, "geometry": {"type": "Point", "coordinates": [-91.69586324073171, -0.025874949297298003]}}, {"type": "Feature", "properties": {"norad_id": 46114, "name": "GALAXY 30 (G-30)", "group": "intelsat", "lat": 0.02277819123477074, "lon": 81.33557504013326, "alt_km": 35795.702669282815, "timestamp": "2025-12-02T08:59:32.387664+00:00", "meta": {"OBJECT_NAME": "GALAXY 30 (G-30)", "OBJECT_ID": "2020-056C", "EPOCH": "2025-12-01T20:42:04.934304", "MEAN_MOTION": 1.0027242, "ECCENTRICITY": 0.0002369, "INCLINATION": 0.0148, "RA_OF_ASC_NODE": 292.7027, "ARG_OF_PERICENTER": 317.0993, "MEAN_ANOMALY": 6.6971, "EPHEMERIS_TYPE": 0, "CLASSIFICATION_TYPE": "U", "NORAD_CAT_ID": 46114, "ELEMENT_SET_NO": 999, "REV_AT_EPOCH": 1931, "BSTAR": 0, "MEAN_MOTION_DOT": 5.8e-07, "MEAN_MOTION_DDOT": 0}, "tle": {"line1": "1 46114U 20056C   25335.86255711  .00000058  00000+0  00000+0 0  9993", "line2": "2 46114   0.0148 292.7027 0002369 317.0993   6.6971  1.00272420 19313"}}, "geometry": {"type": "Point", "coordinates": [81.33557504013326, 0.02277819123477074]}}, {"type": "Feature", "properties": {"norad_id": 54026, "name": "GALAXY 33 (G-33)", "group": "intelsat", "lat": 0.03283358392117065, "lon": 73.34075235300524, "alt_km": 35794.007910851215, "timestamp": "2025-12-02T08:59:32.387676+00:00", "meta": {"OBJECT_NAME": "GALAXY 33 (G-33)", "OBJECT_ID": "2022-128A", "EPOCH": "2025-12-02T02:52:48.158976", "MEAN_MOTION": 1.00272309, "ECCENTRICITY": 0.0001926, "INCLINATION": 0.0128, "RA_OF_ASC_NODE": 327.2382, "ARG_OF_PERICENTER": 278.9194, "MEAN_ANOMALY": 95.2787, "EPHEMERIS_TYPE": 0, "CLASSIFICATION_TYPE": "U", "NORAD_CAT_ID": 54026, "ELEMENT_SET_NO": 999, "REV_AT_EPOCH": 1176, "BSTAR": 0, "MEAN_MOTION_DOT": 1e-06, "MEAN_MOTION_DDOT": 0}, "tle": {"line1": "1 54026U 22128A   25336.12000184  .00000100  00000+0  00000+0 0  9996", "line2": "2 54026   0.0128 327.2382 0001926 278.9194  95.2787  1.00272309 11762"}}, "geometry": {"type": "Point", "coordinates": [73.34075235300524, 0.03283358392117065]}}, {"type": "Feature", "properties": {"norad_id": 54027, "name": "GALAXY 34 (G-34)", "group": "intelsat", "lat": 0.031986999260325215, "lon": 77.33501911078449, "alt_km": 35791.65400085332, "timestamp": "2025-12-02T08:59:32.387687+00:00", "meta": {"OBJECT_NAME": "GALAXY 34 (G-34)", "OBJECT_ID": "2022-128B", "EPOCH": "2025-12-01T20:45:55.897056", "MEAN_MOTION": 1.00272949, "ECCENTRICITY": 0.0001428, "INCLINATION": 0.015, "RA_OF_ASC_NODE": 316.5626, "ARG_OF_PERICENTER": 289.8338, "MEAN_ANOMALY": 7.0638, "EPHEMERIS_TYPE": 0, "CLASSIFICATION_TYPE": "U", "NORAD_CAT_ID": 54027, "ELEMENT_SET_NO": 999, "REV_AT_EPOCH": 1193, "BSTAR": 0, "MEAN_MOTION_DOT": 8e-07, "MEAN_MOTION_DDOT": 0}, "tle": {"line1": "1 54027U 22128B   25335.86523029  .00000080  00000+0  00000+0 0  9992", "line2": "2 54027   0.0150 316.5626 0001428 289.8338   7.0638  1.00272949 11933"}}, "geometry": {"type": "Point", "coordinates": [77.33501911078449, 0.031986999260325215]}}, {"type": "Feature", "properties": {"norad_id": 54243, "name": "GALAXY 31 (G-31)", "group": "intelsat", "lat": 0.029217418658969544, "lon": 85.31322056182962, "alt_km": 35794.94896966663, "timestamp": "2025-12-02T08:59:32.387699+00:00", "meta": {"OBJECT_NAME": "GALAXY 31 (G-31)", "OBJECT_ID": "2022-153A", "EPOCH": "2025-12-02T02:56:10.337568", "MEAN_MOTION": 1.00271468, "ECCENTRICITY": 0.0002078, "INCLINATION": 0.0128, "RA_OF_ASC_NODE": 327.051, "ARG_OF_PERICENTER": 299.1464, "MEAN_ANOMALY": 88.0538, "EPHEMERIS_TYPE": 0, "CLASSIFICATION_TYPE": "U", "NORAD_CAT_ID": 54243, "ELEMENT_SET_NO": 999, "REV_AT_EPOCH": 515, "BSTAR": 0, "MEAN_MOTION_DOT": 0, "MEAN_MOTION_DDOT": 0}, "tle": {"line1": "1 54243U 22153A   25336.12234187  .00000000  00000+0  00000+0 0  9996", "line2": "2 54243   0.0128 327.0510 0002078 299.1464  88.0538  1.00271468  5153"}}, "geometry": {"type": "Point", "coordinates": [85.31322056182962, 0.029217418658969544]}}, {"type": "Feature", "properties": {"norad_id": 54244, "name": "GALAXY 32 (G-32)", "group": "intelsat", "lat": 0.011317021387833835, "lon": 115.346298541307, "alt_km": 35796.50147515954, "timestamp": "2025-12-02T08:59:32.387710+00:00", "meta": {"OBJECT_NAME": "GALAXY 32 (G-32)", "OBJECT_ID": "2022-153B", "EPOCH": "2025-12-01T21:56:31.606944", "MEAN_MOTION": 1.00270413, "ECCENTRICITY": 0.0002407, "INCLINATION": 0.0099, "RA_OF_ASC_NODE": 319.0014, "ARG_OF_PERICENTER": 345.1188, "MEAN_ANOMALY": 5.0458, "EPHEMERIS_TYPE": 0, "CLASSIFICATION_TYPE": "U", "NORAD_CAT_ID": 54244, "ELEMENT_SET_NO": 999, "REV_AT_EPOCH": 1116, "BSTAR": 0, "MEAN_MOTION_DOT": -1.53e-06, "MEAN_MOTION_DDOT": 0}, "tle": {"line1": "1 54244U 22153B   25335.91425471 -.00000153  00000+0  00000+0 0  9991", "line2": "2 54244   0.0099 319.0014 0002407 345.1188   5.0458  1.00270413 11169"}}, "geometry": {"type": "Point", "coordinates": [115.346298541307, 0.011317021387833835]}}, {"type": "Feature", "properties": {"norad_id": 54741, "name": "GALAXY 35 (G-35)", "group": "intelsat", "lat": 0.00022118435650181608, "lon": 113.23024815724098, "alt_km": 35795.54372572084, "timestamp": "2025-12-02T08:59:32.387721+00:00", "meta": {"OBJECT_NAME": "GALAXY 35 (G-35)", "OBJECT_ID": "2022-170A", "EPOCH": "2025-12-02T03:04:09.570720", "MEAN_MOTION": 1.00270332, "ECCENTRICITY": 0.0002644, "INCLINATION": 0.0153, "RA_OF_ASC_NODE": 282.4617, "ARG_OF_PERICENTER": 334.7086, "MEAN_ANOMALY": 127.0195, "EPHEMERIS_TYPE": 0, "CLASSIFICATION_TYPE": "U", "NORAD_CAT_ID": 54741, "ELEMENT_SET_NO": 999, "REV_AT_EPOCH": 1091, "BSTAR": 0, "MEAN_MOTION_DOT": -1.41e-06, "MEAN_MOTION_DDOT": 0}, "tle": {"line1": "1 54741U 22170A   25336.12788855 -.00000141  00000+0  00000+0 0  9991", "line2": "2 54741   0.0153 282.4617 0002644 334.7086 127.0195  1.00270332 10913"}}, "geometry": {"type": "Point", "coordinates": [113.23024815724098, 0.00022118435650181608]}}, {"type": "Feature", "properties": {"norad_id": 54742, "name": "GALAXY 36 (G-36)", "group": "intelsat", "lat": -0.010148040638796168, "lon": 117.33820344335858, "alt_km": 35787.82544509855, "timestamp": "2025-12-02T08:59:32.387732+00:00", "meta": {"OBJECT_NAME": "GALAXY 36 (G-36)", "OBJECT_ID": "2022-170B", "EPOCH": "2025-12-02T03:05:16.965312", "MEAN_MOTION": 1.00270615, "ECCENTRICITY": 5.51e-05, "INCLINATION": 0.0199, "RA_OF_ASC_NODE": 260.0552, "ARG_OF_PERICENTER": 344.0203, "MEAN_ANOMALY": 144.4907, "EPHEMERIS_TYPE": 0, "CLASSIFICATION_TYPE": "U", "NORAD_CAT_ID": 54742, "ELEMENT_SET_NO": 999, "REV_AT_EPOCH": 1079, "BSTAR": 0, "MEAN_MOTION_DOT": -1.64e-06, "MEAN_MOTION_DDOT": 0}, "tle": {"line1": "1 54742U 22170B   25336.12866858 -.00000164  00000+0  00000+0 0  9997", "line2": "2 54742   0.0199 260.0552 0000551 344.0203 144.4907  1.00270615 10798"}}, "geometry": {"type": "Point", "coordinates": [117.33820344335858, -0.010148040638796168]}}, {"type": "Feature", "properties": {"norad_id": 57493, "name": "GALAXY 37 (G-37)", "group": "intelsat", "lat": 0.02722986573287866, "lon": 79.34061341500562, "alt_km": 35796.15072983973, "timestamp": "2025-12-02T08:59:32.387743+00:00", "meta": {"OBJECT_NAME": "GALAXY 37 (G-37)", "OBJECT_ID": "2023-112A", "EPOCH": "2025-12-01T21:46:02.612352", "MEAN_MOTION": 1.00271443, "ECCENTRICITY": 0.000237, "INCLINATION": 0.0198, "RA_OF_ASC_NODE": 293.7772, "ARG_OF_PERICENTER": 321.1427, "MEAN_ANOMALY": 15.6168, "EPHEMERIS_TYPE": 0, "CLASSIFICATION_TYPE": "U", "NORAD_CAT_ID": 57493, "ELEMENT_SET_NO": 999, "REV_AT_EPOCH": 856, "BSTAR": 0, "MEAN_MOTION_DOT": 6.9e-07, "MEAN_MOTION_DDOT": 0}, "tle": {"line1": "1 57493U 23112A   25335.90697468  .00000069  00000+0  00000+0 0  9997", "line2": "2 57493   0.0198 293.7772 0002370 321.1427  15.6168  1.00271443  8565"}}, "geometry": {"type": "Point", "coordinates": [79.34061341500562, 0.02722986573287866]}}]}